{"type": "FeatureCollection", "features": [ {"type": "Feature", "properties": {"norad_id": 34529, "name": "IRIDIUM 33 DEB", "group": "iridium-33-debris", "lat": -8.312542716867346, "lon": -146.4230460597736, "alt_km": 757.1753679916419, "timestamp": "2025-12-18T07:01:54.974294+00:00", "meta": {"OBJECT_NAME": "IRIDIUM 33 DEB", "OBJECT_ID": "1997-051HW", "EPOCH": "2025-12-17T03:29:20.563296", "MEAN_MOTION": 14.40619267, "ECCENTRICITY": 0.00053513, "INCLINATION": 86.3637, "RA_OF_ASC_NODE": 33.5337, "ARG_OF_PERICENTER": 163.3615, "MEAN_ANOMALY": 196.7761, "EPHEMERIS_TYPE": 0, "CLASSIFICATION_TYPE": "U", "NORAD_CAT_ID": 34529, "ELEMENT_SET_NO": 999, "REV_AT_EPOCH": 88205, "BSTAR": 9.9400993e-05, "MEAN_MOTION_DOT": 3.37e-06, "MEAN_MOTION_DDOT": 0}, "tle": {"line1": "1 34529U 97051HW  25351.14537689  .00000337  00000+0  99401-4 0  9993", "line2": "2 34529  86.3637  33.5337 0005351 163.3615 196.7761 14.40619267882051"}}, "geometry": {"type": "Point", "coordinates": [-146.4230460597736, -8.312542716867346]}}, {"type": "Feature", "properties": {"norad_id": 34538, "name": "IRIDIUM 33 DEB", "group": "iridium-33-debris", "lat": 66.169784005718, "lon": 11.601653293434024, "alt_km": 753.8562442555831, "timestamp": "2025-12-18T07:01:54.974304+00:00", "meta": {"OBJECT_NAME": "IRIDIUM 33 DEB", "OBJECT_ID": "1997-051JF", "EPOCH": "2025-12-17T06:19:36.292800", "MEAN_MOTION": 14.42675143, "ECCENTRICITY": 0.00323823, "INCLINATION": 86.2769, "RA_OF_ASC_NODE": 3.5747, "ARG_OF_PERICENTER": 312.4941, "MEAN_ANOMALY": 170.8226, "EPHEMERIS_TYPE": 0, "CLASSIFICATION_TYPE": "U", "NORAD_CAT_ID": 34538, "ELEMENT_SET_NO": 999, "REV_AT_EPOCH": 87821, "BSTAR": 0.00073550599, "MEAN_MOTION_DOT": 2.479e-05, "MEAN_MOTION_DDOT": 0}, "tle": {"line1": "1 34538U 97051JF  25351.26361450  .00002479  00000+0  73551-3 0  9993", "line2": "2 34538  86.2769   3.5747 0032382 312.4941 170.8226 14.42675143878210"}}, "geometry": {"type": "Point", "coordinates": [11.601653293434024, 66.169784005718]}}, {"type": "Feature", "properties": {"norad_id": 34540, "name": "IRIDIUM 33 DEB", "group": "iridium-33-debris", "lat": 56.96291767101996, "lon": -49.23794816717454, "alt_km": 636.8848394828365, "timestamp": "2025-12-18T07:01:54.974315+00:00", "meta": {"OBJECT_NAME": "IRIDIUM 33 DEB", "OBJECT_ID": "1997-051JH", "EPOCH": "2025-12-17T21:15:02.173248", "MEAN_MOTION": 14.75425645, "ECCENTRICITY": 0.00172318, "INCLINATION": 86.31, "RA_OF_ASC_NODE": 305.2533, "ARG_OF_PERICENTER": 141.4592, "MEAN_ANOMALY": 272.6134, "EPHEMERIS_TYPE": 0, "CLASSIFICATION_TYPE": "U", "NORAD_CAT_ID": 34540, "ELEMENT_SET_NO": 999, "REV_AT_EPOCH": 89097, "BSTAR": 0.0012315699, "MEAN_MOTION_DOT": 8.411e-05, "MEAN_MOTION_DDOT": 0}, "tle": {"line1": "1 34540U 97051JH  25351.88544182  .00008411  00000+0  12316-2 0  9992", "line2": "2 34540  86.3100 305.2533 0017231 141.4592 272.6134 14.75425645890978"}}, "geometry": {"type": "Point", "coordinates": [-49.23794816717454, 56.96291767101996]}}, {"type": "Feature", "properties": {"norad_id": 34648, "name": "IRIDIUM 33 DEB", "group": "iridium-33-debris", "lat": 12.641799999704643, "lon": -79.484700807125, "alt_km": 855.4417742422347, "timestamp": "2025-12-18T07:01:54.974326+00:00", "meta": {"OBJECT_NAME": "IRIDIUM 33 DEB", "OBJECT_ID": "1997-051JZ", "EPOCH": "2025-12-17T05:27:16.397568", "MEAN_MOTION": 14.11635148, "ECCENTRICITY": 0.01813922, "INCLINATION": 86.3906, "RA_OF_ASC_NODE": 280.1344, "ARG_OF_PERICENTER": 284.869, "MEAN_ANOMALY": 73.2466, "EPHEMERIS_TYPE": 0, "CLASSIFICATION_TYPE": "U", "NORAD_CAT_ID": 34648, "ELEMENT_SET_NO": 999, "REV_AT_EPOCH": 85024, "BSTAR": 0.0057584356, "MEAN_MOTION_DOT": 0.00012245, "MEAN_MOTION_DDOT": 0}, "tle": {"line1": "1 34648U 97051JZ  25351.22727312  .00012245  00000+0  57584-2 0  9993", "line2": "2 34648  86.3906 280.1344 0181392 284.8690  73.2466 14.11635148850243"}}, "geometry": {"type": "Point", "coordinates": [-79.484700807125, 12.641799999704643]}}, {"type": "Feature", "properties": {"norad_id": 34651, "name": "IRIDIUM 33 DEB", "group": "iridium-33-debris", "lat": -6.336530601028843, "lon": 137.80130824148677, "alt_km": 908.9590438037321, "timestamp": "2025-12-18T07:01:54.974336+00:00", "meta": {"OBJECT_NAME": "IRIDIUM 33 DEB", "OBJECT_ID": "1997-051KC", "EPOCH": "2025-12-17T20:57:25.560000", "MEAN_MOTION": 14.25899188, "ECCENTRICITY": 0.014224, "INCLINATION": 86.2826, "RA_OF_ASC_NODE": 138.3936, "ARG_OF_PERICENTER": 187.682, "MEAN_ANOMALY": 172.2195, "EPHEMERIS_TYPE": 0, "CLASSIFICATION_TYPE": "U", "NORAD_CAT_ID": 34651, "ELEMENT_SET_NO": 999, "REV_AT_EPOCH": 85969, "BSTAR": 0.0024199214, "MEAN_MOTION_DOT": 6.428e-05, "MEAN_MOTION_DDOT": 0}, "tle": {"line1": "1 34651U 97051KC  25351.87321250  .00006428  00000+0  24199-2 0  9991", "line2": "2 34651  86.2826 138.3936 0142240 187.6820 172.2195 14.25899188859690"}}, "geometry": {"type": "Point", "coordinates": [137.80130824148677, -6.336530601028843]}}, {"type": "Feature", "properties": {"norad_id": 34652, "name": "IRIDIUM 33 DEB", "group": "iridium-33-debris", "lat": 47.55997817897052, "lon": -18.44737997988118, "alt_km": 693.7770854909559, "timestamp": "2025-12-18T07:01:54.974347+00:00", "meta": {"OBJECT_NAME": "IRIDIUM 33 DEB", "OBJECT_ID": "1997-051KD", "EPOCH": "2025-12-17T16:49:34.360896", "MEAN_MOTION": 14.62104156, "ECCENTRICITY": 0.00256012, "INCLINATION": 86.3312, "RA_OF_ASC_NODE": 337.7924, "ARG_OF_PERICENTER": 280.0714, "MEAN_ANOMALY": 253.9432, "EPHEMERIS_TYPE": 0, "CLASSIFICATION_TYPE": "U", "NORAD_CAT_ID": 34652, "ELEMENT_SET_NO": 999, "REV_AT_EPOCH": 88556, "BSTAR": 0.0007419997, "MEAN_MOTION_DOT": 3.766e-05, "MEAN_MOTION_DDOT": 0}, "tle": {"line1": "1 34652U 97051KD  25351.70109214  .00003766  00000+0  74200-3 0  9999", "line2": "2 34652  86.3312 337.7924 0025601 280.0714 253.9432 14.62104156885566"}}, "geometry": {"type": "Point", "coordinates": [-18.44737997988118, 47.55997817897052]}}, {"type": "Feature", "properties": {"norad_id": 34690, "name": "IRIDIUM 33 DEB", "group": "iridium-33-debris", "lat": 48.63875327227207, "lon": -149.54750852630147, "alt_km": 708.3273546830223, "timestamp": "2025-12-18T07:01:54.974357+00:00", "meta": {"OBJECT_NAME": "IRIDIUM 33 DEB", "OBJECT_ID": "1997-051KM", "EPOCH": "2025-12-17T14:37:45.220224", "MEAN_MOTION": 14.55113538, "ECCENTRICITY": 0.00102521, "INCLINATION": 86.378, "RA_OF_ASC_NODE": 34.8752, "ARG_OF_PERICENTER": 13.538, "MEAN_ANOMALY": 139.6507, "EPHEMERIS_TYPE": 0, "CLASSIFICATION_TYPE": "U", "NORAD_CAT_ID": 34690, "ELEMENT_SET_NO": 999, "REV_AT_EPOCH": 88165, "BSTAR": 0.00032504692, "MEAN_MOTION_DOT": 1.424e-05, "MEAN_MOTION_DDOT": 0}, "tle": {"line1": "1 34690U 97051KM  25351.60955116  .00001424  00000+0  32505-3 0  9991", "line2": "2 34690  86.3780  34.8752 0010252  13.5380 139.6507 14.55113538881650"}}, "geometry": {"type": "Point", "coordinates": [-149.54750852630147, 48.63875327227207]}}, {"type": "Feature", "properties": {"norad_id": 34693, "name": "IRIDIUM 33 DEB", "group": "iridium-33-debris", "lat": -27.022287515104402, "lon": 122.95210438501886, "alt_km": 492.3299298194379, "timestamp": "2025-12-18T07:01:54.974368+00:00", "meta": {"OBJECT_NAME": "IRIDIUM 33 DEB", "OBJECT_ID": "1997-051KQ", "EPOCH": "2025-12-17T03:29:01.779936", "MEAN_MOTION": 15.28993867, "ECCENTRICITY": 0.0012502, "INCLINATION": 86.3047, "RA_OF_ASC_NODE": 301.6344, "ARG_OF_PERICENTER": 45.3487, "MEAN_ANOMALY": 327.2881, "EPHEMERIS_TYPE": 0, "CLASSIFICATION_TYPE": "U", "NORAD_CAT_ID": 34693, "ELEMENT_SET_NO": 999, "REV_AT_EPOCH": 88982, "BSTAR": 0.0037800508, "MEAN_MOTION_DOT": 0.00107985, "MEAN_MOTION_DDOT": 0}, "tle": {"line1": "1 34693U 97051KQ  25351.14515949  .00107985  00000+0  37801-2 0  9991", "line2": "2 34693  86.3047 301.6344 0012502  45.3487 327.2881 15.28993867889821"}}, "geometry": {"type": "Point", "coordinates": [122.95210438501886, -27.022287515104402]}}, {"type": "Feature", "properties": {"norad_id": 34696, "name": "IRIDIUM 33 DEB", "group": "iridium-33-debris", "lat": 68.04112299903538, "lon": -164.58715326474257, "alt_km": 627.6167897994928, "timestamp": "2025-12-18T07:01:54.974378+00:00", "meta": {"OBJECT_NAME": "IRIDIUM 33 DEB", "OBJECT_ID": "1997-051KT", "EPOCH": "2025-12-17T09:30:23.079744", "MEAN_MOTION": 14.6532937, "ECCENTRICITY": 0.00740014, "INCLINATION": 86.1851, "RA_OF_ASC_NODE": 25.356, "ARG_OF_PERICENTER": 151.7649, "MEAN_ANOMALY": 272.0645, "EPHEMERIS_TYPE": 0, "CLASSIFICATION_TYPE": "U", "NORAD_CAT_ID": 34696, "ELEMENT_SET_NO": 999, "REV_AT_EPOCH": 86741, "BSTAR": 0.0031909268, "MEAN_MOTION_DOT": 0.00017981, "MEAN_MOTION_DDOT": 0}, "tle": {"line1": "1 34696U 97051KT  25351.39610046  .00017981  00000+0  31909-2 0  9994", "line2": "2 34696  86.1851  25.3560 0074001 151.7649 272.0645 14.65329370867417"}}, "geometry": {"type": "Point", "coordinates": [-164.58715326474257, 68.04112299903538]}}, {"type": "Feature", "properties": {"norad_id": 34765, "name": "IRIDIUM 33 DEB", "group": "iridium-33-debris", "lat": -47.71477484353259, "lon": -145.58407970523928, "alt_km": 754.5123613722071, "timestamp": "2025-12-18T07:01:54.974388+00:00", "meta": {"OBJECT_NAME": "IRIDIUM 33 DEB", "OBJECT_ID": "1997-051LJ", "EPOCH": "2025-12-17T14:00:27.393696", "MEAN_MOTION": 14.4047717, "ECCENTRICITY": 0.00159633, "INCLINATION": 86.3388, "RA_OF_ASC_NODE": 30.6831, "ARG_OF_PERICENTER": 194.8895, "MEAN_ANOMALY": 316.624, "EPHEMERIS_TYPE": 0, "CLASSIFICATION_TYPE": "U", "NORAD_CAT_ID": 34765, "ELEMENT_SET_NO": 999, "REV_AT_EPOCH": 87683, "BSTAR": 0.0003220723, "MEAN_MOTION_DOT": 1.045e-05, "MEAN_MOTION_DDOT": 0}, "tle": {"line1": "1 34765U 97051LJ  25351.58365039  .00001045  00000+0  32207-3 0  9998", "line2": "2 34765  86.3388  30.6831 0015963 194.8895 316.6240 14.40477170876831"}}, "geometry": {"type": "Point", "coordinates": [-145.58407970523928, -47.71477484353259]}}]}